SpinLaunch #10000186
1 99999U 24029BR  24282.57172454  .00001103  00000-0  33518-4 0  9998
2 99999  55.0000  56.9725 0003481 299.7327   0.3331 14.20733810  1770
SpinLaunch #10000187
1 99999U 24029BR  24282.57172454  .00001103  00000-0  33518-4 0  9998
2 99999  55.0000  57.2750 0003481 299.7327   0.3331 14.20733810  1770
SpinLaunch #10000188
1 99999U 24029BR  24282.57172454  .00001103  00000-0  33518-4 0  9998
2 99999  55.0000  57.5775 0003481 299.7327   0.3331 14.20733810  1770
SpinLaunch #10000189
1 99999U 24029BR  24282.57172454  .00001103  00000-0  33518-4 0  9998
2 99999  55.0000  57.8801 0003481 299.7327   0.3331 14.20733810  1770
SpinLaunch #10000190
1 99999U 24029BR  24282.57172454  .00001103  00000-0  33518-4 0  9998
2 99999  55.0000  58.1826 0003481 299.7327   0.3331 14.20733810  1770
SpinLaunch #10000191
1 99999U 24029BR  24282.57172454  .00001103  00000-0  33518-4 0  9998
2 99999  55.0000  58.4851 0003481 299.7327   0.3331 14.20733810  1770
SpinLaunch #10000192
1 99999U 24029BR  24282.57172454  .00001103  00000-0  33518-4 0  9998
2 99999  55.0000  58.7876 0003481 299.7327   0.3331 14.20733810  1770
SpinLaunch #10000193
1 99999U 24029BR  24282.57172454  .00001103  00000-0  33518-4 0  9998
2 99999  55.0000  59.0902 0003481 299.7327   0.3331 14.20733810  1770
SpinLaunch #10000194
1 99999U 24029BR  24282.57172454  .00001103  00000-0  33518-4 0  9998
2 99999  55.0000  59.3927 0003481 299.7327   0.3331 14.20733810  1770
SpinLaunch #10000195
1 99999U 24029BR  24282.57172454  .00001103  00000-0  33518-4 0  9998
2 99999  55.0000  59.6952 0003481 299.7327   0.3331 14.20733810  1770
SpinLaunch #10000196
1 99999U 24029BR  24282.57172454  .00001103  00000-0  33518-4 0  9998
2 99999  55.0000  59.9977 0003481 299.7327   0.3331 14.20733810  1770
SpinLaunch #10000197
1 99999U 24029BR  24282.57172454  .00001103  00000-0  33518-4 0  9998
2 99999  55.0000  60.3002 0003481 299.7327   0.3331 14.20733810  1770
SpinLaunch #10000198
1 99999U 24029BR  24282.57172454  .00001103  00000-0  33518-4 0  9998
2 99999  55.0000  60.6028 0003481 299.7327   0.3331 14.20733810  1770
SpinLaunch #10000199
1 99999U 24029BR  24282.57172454  .00001103  00000-0  33518-4 0  9998
2 99999  55.0000  60.9053 0003481 299.7327   0.3331 14.20733810  1770
SpinLaunch #10000200
1 99999U 24029BR  24282.57172454  .00001103  00000-0  33518-4 0  9998
2 99999  55.0000  61.2078 0003481 299.7327   0.3331 14.20733810  1770
SpinLaunch #10000201
1 99999U 24029BR  24282.57172454  .00001103  00000-0  33518-4 0  9998
2 99999  55.0000  61.5103 0003481 299.7327   0.3331 14.20733810  1770
SpinLaunch #10000202
1 99999U 24029BR  24282.57172454  .00001103  00000-0  33518-4 0  9998
2 99999  55.0000  61.8128 0003481 299.7327   0.3331 14.20733810  1770
SpinLaunch #10000203
1 99999U 24029BR  24282.57172454  .00001103  00000-0  33518-4 0  9998
2 99999  55.0000  62.1154 0003481 299.7327   0.3331 14.20733810  1770
SpinLaunch #10000204
1 99999U 24029BR  24282.57172454  .00001103  00000-0  33518-4 0  9998
2 99999  55.0000  62.4179 0003481 299.7327   0.3331 14.20733810  1770
SpinLaunch #10000205
1 99999U 24029BR  24282.57172454  .00001103  00000-0  33518-4 0  9998
2 99999  55.0000  62.7204 0003481 299.7327   0.3331 14.20733810  1770
SpinLaunch #10000206
1 99999U 24029BR  24282.57172454  .00001103  00000-0  33518-4 0  9998
2 99999  55.0000  63.0229 0003481 299.7327   0.3331 14.20733810  1770
SpinLaunch #10000207
1 99999U 24029BR  24282.57172454  .00001103  00000-0  33518-4 0  9998
2 99999  55.0000  63.3254 0003481 299.7327   0.3331 14.20733810  1770
SpinLaunch #10000208
1 99999U 24029BR  24282.57172454  .00001103  00000-0  33518-4 0  9998
2 99999  55.0000  63.6280 0003481 299.7327   0.3331 14.20733810  1770
SpinLaunch #10000209
1 99999U 24029BR  24282.57172454  .00001103  00000-0  33518-4 0  9998
2 99999  55.0000  63.9305 0003481 299.7327   0.3331 14.20733810  1770
SpinLaunch #10000210
1 99999U 24029BR  24282.57172454  .00001103  00000-0  33518-4 0  9998
2 99999  55.0000  64.2330 0003481 299.7327   0.3331 14.20733810  1770
SpinLaunch #10000211
1 99999U 24029BR  24282.57172454  .00001103  00000-0  33518-4 0  9998
2 99999  55.0000  64.5355 0003481 299.7327   0.3331 14.20733810  1770
SpinLaunch #10000212
1 99999U 24029BR  24282.57172454  .00001103  00000-0  33518-4 0  9998
2 99999  55.0000  64.8381 0003481 299.7327   0.3331 14.20733810  1770
SpinLaunch #10000213
1 99999U 24029BR  24282.57172454  .00001103  00000-0  33518-4 0  9998
2 99999  55.0000  65.1406 0003481 299.7327   0.3331 14.20733810  1770
SpinLaunch #10000214
1 99999U 24029BR  24282.57172454  .00001103  00000-0  33518-4 0  9998
2 99999  55.0000  65.4431 0003481 299.7327   0.3331 14.20733810  1770
SpinLaunch #10000215
1 99999U 24029BR  24282.57172454  .00001103  00000-0  33518-4 0  9998
2 99999  55.0000  65.7456 0003481 299.7327   0.3331 14.20733810  1770
SpinLaunch #10000216
1 99999U 24029BR  24282.57172454  .00001103  00000-0  33518-4 0  9998
2 99999  55.0000  66.0481 0003481 299.7327   0.3331 14.20733810  1770
SpinLaunch #10000217
1 99999U 24029BR  24282.57172454  .00001103  00000-0  33518-4 0  9998
2 99999  55.0000  66.3507 0003481 299.7327   0.3331 14.20733810  1770
SpinLaunch #10000218
1 99999U 24029BR  24282.57172454  .00001103  00000-0  33518-4 0  9998
2 99999  55.0000  66.6532 0003481 299.7327   0.3331 14.20733810  1770
SpinLaunch #10000219
1 99999U 24029BR  24282.57172454  .00001103  00000-0  33518-4 0  9998
2 99999  55.0000  66.9557 0003481 299.7327   0.3331 14.20733810  1770
SpinLaunch #10000220
1 99999U 24029BR  24282.57172454  .00001103  00000-0  33518-4 0  9998
2 99999  55.0000  67.2582 0003481 299.7327   0.3331 14.20733810  1770
SpinLaunch #10000221
1 99999U 24029BR  24282.57172454  .00001103  00000-0  33518-4 0  9998
2 99999  55.0000  67.5607 0003481 299.7327   0.3331 14.20733810  1770
SpinLaunch #10000222
1 99999U 24029BR  24282.57172454  .00001103  00000-0  33518-4 0  9998
2 99999  55.0000  67.8633 0003481 299.7327   0.3331 14.20733810  1770
SpinLaunch #10000223
1 99999U 24029BR  24282.57172454  .00001103  00000-0  33518-4 0  9998
2 99999  55.0000  68.1658 0003481 299.7327   0.3331 14.20733810  1770
SpinLaunch #10000224
1 99999U 24029BR  24282.57172454  .00001103  00000-0  33518-4 0  9998
2 99999  55.0000  68.4683 0003481 299.7327   0.3331 14.20733810  1770
SpinLaunch #10000225
1 99999U 24029BR  24282.57172454  .00001103  00000-0  33518-4 0  9998
2 99999  55.0000  68.7708 0003481 299.7327   0.3331 14.20733810  1770
SpinLaunch #10000226
1 99999U 24029BR  24282.57172454  .00001103  00000-0  33518-4 0  9998
2 99999  55.0000  69.0733 0003481 299.7327   0.3331 14.20733810  1770
SpinLaunch #10000227
1 99999U 24029BR  24282.57172454  .00001103  00000-0  33518-4 0  9998
2 99999  55.0000  69.3759 0003481 299.7327   0.3331 14.20733810  1770
SpinLaunch #10000228
1 99999U 24029BR  24282.57172454  .00001103  00000-0  33518-4 0  9998
2 99999  55.0000  69.6784 0003481 299.7327   0.3331 14.20733810  1770
SpinLaunch #10000229
1 99999U 24029BR  24282.57172454  .00001103  00000-0  33518-4 0  9998
2 99999  55.0000  69.9809 0003481 299.7327   0.3331 14.20733810  1770
SpinLaunch #10000230
1 99999U 24029BR  24282.57172454  .00001103  00000-0  33518-4 0  9998
2 99999  55.0000  70.2834 0003481 299.7327   0.3331 14.20733810  1770
SpinLaunch #10000231
1 99999U 24029BR  24282.57172454  .00001103  00000-0  33518-4 0  9998
2 99999  55.0000  70.5860 0003481 299.7327   0.3331 14.20733810  1770
SpinLaunch #10000232
1 99999U 24029BR  24282.57172454  .00001103  00000-0  33518-4 0  9998
2 99999  55.0000  70.8885 0003481 299.7327   0.3331 14.20733810  1770
SpinLaunch #10000233
1 99999U 24029BR  24282.57172454  .00001103  00000-0  33518-4 0  9998
2 99999  55.0000  71.1910 0003481 299.7327   0.3331 14.20733810  1770
SpinLaunch #10000234
1 99999U 24029BR  24282.57172454  .00001103  00000-0  33518-4 0  9998
2 99999  55.0000  71.4935 0003481 299.7327   0.3331 14.20733810  1770
SpinLaunch #10000235
1 99999U 24029BR  24282.57172454  .00001103  00000-0  33518-4 0  9998
2 99999  55.0000  71.7960 0003481 299.7327   0.3331 14.20733810  1770
SpinLaunch #10000236
1 99999U 24029BR  24282.57172454  .00001103  00000-0  33518-4 0  9998
2 99999  55.0000  72.0986 0003481 299.7327   0.3331 14.20733810  1770
SpinLaunch #10000237
1 99999U 24029BR  24282.57172454  .00001103  00000-0  33518-4 0  9998
2 99999  55.0000  72.4011 0003481 299.7327   0.3331 14.20733810  1770
SpinLaunch #10000238
1 99999U 24029BR  24282.57172454  .00001103  00000-0  33518-4 0  9998
2 99999  55.0000  72.7036 0003481 299.7327   0.3331 14.20733810  1770
SpinLaunch #10000239
1 99999U 24029BR  24282.57172454  .00001103  00000-0  33518-4 0  9998
2 99999  55.0000  73.0061 0003481 299.7327   0.3331 14.20733810  1770
SpinLaunch #10000240
1 99999U 24029BR  24282.57172454  .00001103  00000-0  33518-4 0  9998
2 99999  55.0000  73.3086 0003481 299.7327   0.3331 14.20733810  1770
SpinLaunch #10000241
1 99999U 24029BR  24282.57172454  .00001103  00000-0  33518-4 0  9998
2 99999  55.0000  73.6112 0003481 299.7327   0.3331 14.20733810  1770
SpinLaunch #10000242
1 99999U 24029BR  24282.57172454  .00001103  00000-0  33518-4 0  9998
2 99999  55.0000  73.9137 0003481 299.7327   0.3331 14.20733810  1770
SpinLaunch #10000243
1 99999U 24029BR  24282.57172454  .00001103  00000-0  33518-4 0  9998
2 99999  55.0000  74.2162 0003481 299.7327   0.3331 14.20733810  1770
SpinLaunch #10000244
1 99999U 24029BR  24282.57172454  .00001103  00000-0  33518-4 0  9998
2 99999  55.0000  74.5187 0003481 299.7327   0.3331 14.20733810  1770
SpinLaunch #10000245
1 99999U 24029BR  24282.57172454  .00001103  00000-0  33518-4 0  9998
2 99999  55.0000  74.8212 0003481 299.7327   0.3331 14.20733810  1770
SpinLaunch #10000246
1 99999U 24029BR  24282.57172454  .00001103  00000-0  33518-4 0  9998
2 99999  55.0000  75.1238 0003481 299.7327   0.3331 14.20733810  1770
SpinLaunch #10000247
1 99999U 24029BR  24282.57172454  .00001103  00000-0  33518-4 0  9998
2 99999  55.0000  75.4263 0003481 299.7327   0.3331 14.20733810  1770
